start=new Date('2021-11-15T00:00:00.000Z').valueOf();
sats=[{"ELEMENT_SET_NO":"999","DECAY_DATE":null,"FILE":"3215179","MEAN_ELEMENT_THEORY":"SGP4","COUNTRY_CODE":"US","PERIAPSIS":"511.189","EPOCH":"2021-11-14T21:55:55.300800","NORAD_CAT_ID":"47146","BSTAR":"0.01080800000000","CLASSIFICATION_TYPE":"U","TIME_SYSTEM":"UTC","ECCENTRICITY":"0.00012050","OBJECT_TYPE":"PAYLOAD","TLE_LINE1":"1 47146U 20088AA  21318.91383450  .00229026  00000-0  10808-1 0  9997","MEAN_ANOMALY":"267.6299","INCLINATION":"53.0550","OBJECT_NAME":"STARLINK-1859","MEAN_MOTION_DDOT":"0.0000000000000","REF_FRAME":"TEME","MEAN_MOTION":"15.17956672","OBJECT_ID":"2020-088AA","RCS_SIZE":"LARGE","EPHEMERIS_TYPE":"0","CENTER_NAME":"EARTH","GP_ID":"189773186","RA_OF_ASC_NODE":"185.1547","MEAN_MOTION_DOT":"0.00229026","SEMIMAJOR_AXIS":"6890.154","PERIOD":"94.864","LAUNCH_DATE":"2020-11-25","ARG_OF_PERICENTER":"92.4833","REV_AT_EPOCH":"5419","TLE_LINE2":"2 47146  53.0550 185.1547 0001205  92.4833 267.6299 15.17956672 54199","APOAPSIS":"512.849","SITE":"AFETR"},{"SEMIMAJOR_AXIS":"6925.331","GP_ID":"189745902","RA_OF_ASC_NODE":"176.8738","MEAN_MOTION_DOT":"0.00002233","CENTER_NAME":"EARTH","EPHEMERIS_TYPE":"0","OBJECT_ID":"2020-088AB","MEAN_MOTION":"15.06405665","RCS_SIZE":"LARGE","MEAN_MOTION_DDOT":"0.0000000000000","REF_FRAME":"TEME","SITE":"AFETR","TLE_LINE2":"2 47147  53.0529 176.8738 0001934  61.0872 299.0311 15.06405665 54293","APOAPSIS":"548.536","REV_AT_EPOCH":"5429","ARG_OF_PERICENTER":"61.0872","LAUNCH_DATE":"2020-11-25","PERIOD":"95.592","EPOCH":"2021-11-14T14:55:17.129856","PERIAPSIS":"545.857","MEAN_ELEMENT_THEORY":"SGP4","COUNTRY_CODE":"US","DECAY_DATE":null,"FILE":"3214995","ELEMENT_SET_NO":"999","OBJECT_NAME":"STARLINK-1860","INCLINATION":"53.0529","MEAN_ANOMALY":"299.0311","TLE_LINE1":"1 47147U 20088AB  21318.62172604  .00002233  00000-0  16877-3 0  9996","OBJECT_TYPE":"PAYLOAD","ECCENTRICITY":"0.00019340","TIME_SYSTEM":"UTC","CLASSIFICATION_TYPE":"U","BSTAR":"0.00016877000000","NORAD_CAT_ID":"47147"},{"ELEMENT_SET_NO":"999","FILE":"3215179","DECAY_DATE":null,"COUNTRY_CODE":"US","MEAN_ELEMENT_THEORY":"SGP4","PERIAPSIS":"545.986","EPOCH":"2021-11-14T20:41:37.841856","NORAD_CAT_ID":"47148","BSTAR":"0.00007289000000","CLASSIFICATION_TYPE":"U","TIME_SYSTEM":"UTC","OBJECT_TYPE":"PAYLOAD","ECCENTRICITY":"0.00017530","TLE_LINE1":"1 47148U 20088AC  21318.86224354  .00000804  00000-0  72890-4 0  9993","INCLINATION":"53.0554","MEAN_ANOMALY":"283.9367","OBJECT_NAME":"STARLINK-1861","REF_FRAME":"TEME","MEAN_MOTION_DDOT":"0.0000000000000","RCS_SIZE":"LARGE","OBJECT_ID":"2020-088AC","MEAN_MOTION":"15.06404449","EPHEMERIS_TYPE":"0","CENTER_NAME":"EARTH","RA_OF_ASC_NODE":"165.7824","MEAN_MOTION_DOT":"0.00000804","GP_ID":"189774188","SEMIMAJOR_AXIS":"6925.335","PERIOD":"95.592","LAUNCH_DATE":"2020-11-25","ARG_OF_PERICENTER":"76.1817","REV_AT_EPOCH":"5446","TLE_LINE2":"2 47148  53.0554 165.7824 0001753  76.1817 283.9367 15.06404449 54461","APOAPSIS":"548.414","SITE":"AFETR"},{"EPOCH":"2021-11-14T21:22:46.644096","PERIAPSIS":"546.110","COUNTRY_CODE":"US","MEAN_ELEMENT_THEORY":"SGP4","FILE":"3215179","DECAY_DATE":null,"ELEMENT_SET_NO":"999","OBJECT_NAME":"STARLINK-1862","INCLINATION":"53.0530","MEAN_ANOMALY":"286.9007","TLE_LINE1":"1 47149U 20088AD  21318.89081764  .00000517  00000-0  53627-4 0  9991","ECCENTRICITY":"0.00016270","OBJECT_TYPE":"PAYLOAD","TIME_SYSTEM":"UTC","BSTAR":"0.00005362700000","CLASSIFICATION_TYPE":"U","NORAD_CAT_ID":"47149","SEMIMAJOR_AXIS":"6925.371","RA_OF_ASC_NODE":"175.6604","MEAN_MOTION_DOT":"0.00000517","GP_ID":"189774938","CENTER_NAME":"EARTH","EPHEMERIS_TYPE":"0","RCS_SIZE":"LARGE","MEAN_MOTION":"15.06392593","OBJECT_ID":"2020-088AD","REF_FRAME":"TEME","MEAN_MOTION_DDOT":"0.0000000000000","SITE":"AFETR","TLE_LINE2":"2 47149  53.0530 175.6604 0001627  73.2160 286.9007 15.06392593 55068","APOAPSIS":"548.363","REV_AT_EPOCH":"5506","ARG_OF_PERICENTER":"73.2160","LAUNCH_DATE":"2020-11-25","PERIOD":"95.593"},{"APOAPSIS":"548.310","TLE_LINE2":"2 47150  53.0529 165.6898 0001551  75.4391 284.6770 15.06392663 54472","SITE":"AFETR","LAUNCH_DATE":"2020-11-25","PERIOD":"95.593","REV_AT_EPOCH":"5447","ARG_OF_PERICENTER":"75.4391","GP_ID":"189773686","MEAN_MOTION_DOT":"0.00001714","RA_OF_ASC_NODE":"165.6898","CENTER_NAME":"EARTH","SEMIMAJOR_AXIS":"6925.371","MEAN_MOTION_DDOT":"0.0000000000000","REF_FRAME":"TEME","EPHEMERIS_TYPE":"0","OBJECT_ID":"2020-088AE","MEAN_MOTION":"15.06392663","RCS_SIZE":"LARGE","TLE_LINE1":"1 47150U 20088AE  21318.88435349  .00001714  00000-0  13397-3 0  9993","OBJECT_NAME":"STARLINK-1863","MEAN_ANOMALY":"284.6770","INCLINATION":"53.0529","BSTAR":"0.00013397000000","CLASSIFICATION_TYPE":"U","NORAD_CAT_ID":"47150","OBJECT_TYPE":"PAYLOAD","ECCENTRICITY":"0.00015510","TIME_SYSTEM":"UTC","EPOCH":"2021-11-14T21:13:28.141536","PERIAPSIS":"546.162","ELEMENT_SET_NO":"999","COUNTRY_CODE":"US","MEAN_ELEMENT_THEORY":"SGP4","DECAY_DATE":null,"FILE":"3215179"},{"TIME_SYSTEM":"UTC","OBJECT_TYPE":"PAYLOAD","ECCENTRICITY":"0.00015620","NORAD_CAT_ID":"47151","CLASSIFICATION_TYPE":"U","BSTAR":"-0.00002465100000","MEAN_ANOMALY":"288.1249","INCLINATION":"53.0543","OBJECT_NAME":"STARLINK-1864","TLE_LINE1":"1 47151U 20088AF  21318.88342892 -.00000649  00000-0 -24651-4 0  9998","DECAY_DATE":null,"FILE":"3215179","COUNTRY_CODE":"US","MEAN_ELEMENT_THEORY":"SGP4","ELEMENT_SET_NO":"999","PERIAPSIS":"546.147","EPOCH":"2021-11-14T21:12:08.258688","ARG_OF_PERICENTER":"71.9910","REV_AT_EPOCH":"5432","PERIOD":"95.592","LAUNCH_DATE":"2020-11-25","SITE":"AFETR","APOAPSIS":"548.310","TLE_LINE2":"2 47151  53.0543 175.6878 0001562  71.9910 288.1249 15.06395138 54322","MEAN_MOTION":"15.06395138","OBJECT_ID":"2020-088AF","RCS_SIZE":"LARGE","EPHEMERIS_TYPE":"0","MEAN_MOTION_DDOT":"0.0000000000000","REF_FRAME":"TEME","SEMIMAJOR_AXIS":"6925.363","CENTER_NAME":"EARTH","GP_ID":"189773936","MEAN_MOTION_DOT":"-0.00000649","RA_OF_ASC_NODE":"175.6878"},{"PERIAPSIS":"546.142","EPOCH":"2021-11-14T20:50:55.359456","DECAY_DATE":null,"FILE":"3215179","COUNTRY_CODE":"US","MEAN_ELEMENT_THEORY":"SGP4","ELEMENT_SET_NO":"999","MEAN_ANOMALY":"282.5625","INCLINATION":"53.0540","OBJECT_NAME":"STARLINK-1866","TLE_LINE1":"1 47152U 20088AG  21318.86869629 -.00000408  00000-0 -84992-5 0  9997","TIME_SYSTEM":"UTC","ECCENTRICITY":"0.00015830","OBJECT_TYPE":"PAYLOAD","NORAD_CAT_ID":"47152","BSTAR":"-0.00000849920000","CLASSIFICATION_TYPE":"U","SEMIMAJOR_AXIS":"6925.373","CENTER_NAME":"EARTH","GP_ID":"189774688","RA_OF_ASC_NODE":"175.7647","MEAN_MOTION_DOT":"-0.00000408","MEAN_MOTION":"15.06392060","OBJECT_ID":"2020-088AG","RCS_SIZE":"LARGE","EPHEMERIS_TYPE":"0","MEAN_MOTION_DDOT":"0.0000000000000","REF_FRAME":"TEME","SITE":"AFETR","APOAPSIS":"548.334","TLE_LINE2":"2 47152  53.0540 175.7647 0001583  77.5541 282.5625 15.06392060 54327","ARG_OF_PERICENTER":"77.5541","REV_AT_EPOCH":"5432","PERIOD":"95.593","LAUNCH_DATE":"2020-11-25"},{"OBJECT_NAME":"STARLINK-1867","INCLINATION":"53.0533","MEAN_ANOMALY":"289.1837","TLE_LINE1":"1 47153U 20088AH  21318.90967181  .00001128  00000-0  94624-4 0  9995","ECCENTRICITY":"0.00019520","OBJECT_TYPE":"PAYLOAD","TIME_SYSTEM":"UTC","BSTAR":"0.00009462400000","CLASSIFICATION_TYPE":"U","NORAD_CAT_ID":"47153","EPOCH":"2021-11-14T21:49:55.644384","PERIAPSIS":"545.877","COUNTRY_CODE":"US","MEAN_ELEMENT_THEORY":"SGP4","DECAY_DATE":null,"FILE":"3215179","ELEMENT_SET_NO":"999","SITE":"AFETR","APOAPSIS":"548.581","TLE_LINE2":"2 47153  53.0533 180.5769 0001952  70.9363 289.1837 15.06395041 54261","REV_AT_EPOCH":"5426","ARG_OF_PERICENTER":"70.9363","LAUNCH_DATE":"2020-11-25","PERIOD":"95.592","SEMIMAJOR_AXIS":"6925.364","GP_ID":"189774439","MEAN_MOTION_DOT":"0.00001128","RA_OF_ASC_NODE":"180.5769","CENTER_NAME":"EARTH","EPHEMERIS_TYPE":"0","MEAN_MOTION":"15.06395041","OBJECT_ID":"2020-088AH","RCS_SIZE":"LARGE","MEAN_MOTION_DDOT":"0.0000000000000","REF_FRAME":"TEME"},{"TLE_LINE1":"1 47154U 20088AJ  21318.84011947  .00000719  00000-0  67139-4 0  9995","INCLINATION":"53.0527","MEAN_ANOMALY":"285.5502","OBJECT_NAME":"STARLINK-1868","NORAD_CAT_ID":"47154","CLASSIFICATION_TYPE":"U","BSTAR":"0.00006713900000","TIME_SYSTEM":"UTC","ECCENTRICITY":"0.00019830","OBJECT_TYPE":"PAYLOAD","PERIAPSIS":"545.818","EPOCH":"2021-11-14T20:09:46.322208","ELEMENT_SET_NO":"999","DECAY_DATE":null,"FILE":"3215179","MEAN_ELEMENT_THEORY":"SGP4","COUNTRY_CODE":"US","TLE_LINE2":"2 47154  53.0527 165.8907 0001983  74.5706 285.5502 15.06407417 54462","APOAPSIS":"548.564","SITE":"AFETR","PERIOD":"95.592","LAUNCH_DATE":"2020-11-25","ARG_OF_PERICENTER":"74.5706","REV_AT_EPOCH":"5446","CENTER_NAME":"EARTH","GP_ID":"189773187","MEAN_MOTION_DOT":"0.00000719","RA_OF_ASC_NODE":"165.8907","SEMIMAJOR_AXIS":"6925.326","MEAN_MOTION_DDOT":"0.0000000000000","REF_FRAME":"TEME","MEAN_MOTION":"15.06407417","OBJECT_ID":"2020-088AJ","RCS_SIZE":"LARGE","EPHEMERIS_TYPE":"0"},{"EPOCH":"2021-11-14T22:35:44.298816","PERIAPSIS":"546.108","COUNTRY_CODE":"US","MEAN_ELEMENT_THEORY":"SGP4","DECAY_DATE":null,"FILE":"3215179","ELEMENT_SET_NO":"999","OBJECT_NAME":"STARLINK-1869","MEAN_ANOMALY":"277.4482","INCLINATION":"53.0528","TLE_LINE1":"1 47155U 20088AK  21318.94148494 -.00000470  00000-0 -12639-4 0  9996","ECCENTRICITY":"0.00016180","OBJECT_TYPE":"PAYLOAD","TIME_SYSTEM":"UTC","CLASSIFICATION_TYPE":"U","BSTAR":"-0.00001263900000","NORAD_CAT_ID":"47155","SEMIMAJOR_AXIS":"6925.364","GP_ID":"189773437","RA_OF_ASC_NODE":"185.4219","MEAN_MOTION_DOT":"-0.00000470","CENTER_NAME":"EARTH","EPHEMERIS_TYPE":"0","MEAN_MOTION":"15.06395054","OBJECT_ID":"2020-088AK","RCS_SIZE":"LARGE","MEAN_MOTION_DDOT":"0.0000000000000","REF_FRAME":"TEME","SITE":"AFETR","TLE_LINE2":"2 47155  53.0528 185.4219 0001618  82.6691 277.4482 15.06395054 54196","APOAPSIS":"548.349","REV_AT_EPOCH":"5419","ARG_OF_PERICENTER":"82.6691","LAUNCH_DATE":"2020-11-25","PERIOD":"95.592"}];
